[{"OBJECT_NAME":"COSMOS 2486","OBJECT_ID":"2013-028A","EPOCH":"2026-03-09T22:16:04.416096","MEAN_MOTION":14.56145147,"ECCENTRICITY":0.00103796,"INCLINATION":98.004,"RA_OF_ASC_NODE":40.2497,"ARG_OF_PERICENTER":332.4054,"MEAN_ANOMALY":27.6592,"EPHEMERIS_TYPE":0,"CLASSIFICATION_TYPE":"U","NORAD_CAT_ID":39177,"ELEMENT_SET_NO":999,"REV_AT_EPOCH":67693,"BSTAR":6.977993e-5,"MEAN_MOTION_DOT":2.65e-6,"MEAN_MOTION_DDOT":0},{"OBJECT_NAME":"COSMOS 2251 DEB","OBJECT_ID":"1993-036HA","EPOCH":"2026-03-09T21:10:53.462208","MEAN_MOTION":14.60940832,"ECCENTRICITY":0.00182347,"INCLINATION":74.0264,"RA_OF_ASC_NODE":352.8518,"ARG_OF_PERICENTER":68.2028,"MEAN_ANOMALY":354.5966,"EPHEMERIS_TYPE":0,"CLASSIFICATION_TYPE":"U","NORAD_CAT_ID":34015,"ELEMENT_SET_NO":999,"REV_AT_EPOCH":89803,"BSTAR":0.0012628798,"MEAN_MOTION_DOT":6.177e-5,"MEAN_MOTION_DDOT":0}]
